C/2017 T2 (PANSTARRS),e,57.2862,64.4400,92.7815,1584,0.0000156,0.99898690,0.0000,05/05.9683/2020,2000,g  5.0,4.0
# From MPC115882
P/2017 TW13 (Lemmon),e,44.8820,322.1286,120.0109,7.137274,0.0516899,0.71067958,129.2391,04/28.0/2025,2000,g 15.0,2.0
# From MPEC 2022-K19
P/2017 U3 (PANSTARRS),e,15.9218,165.0586,296.4340,4.919730,0.0903217,0.10081772,198.9924,04/28.0/2025,2000,g 11.0,4.0
# From MPEC 2023-A50
C/2017 U7 (PANSTARRS),h,09/16.2439/2019,142.6391,276.3197,326.4249,1.002748,6.420102,2000,8.3,2.0
# From MPC114601
P/2017 W3 (Gibbs),e,18.1869,210.0745,327.7700,7.818808,0.0450810,0.50700488,117.9955,04/28.0/2025,2000,g 10.5,4.0
# From MPEC 2024-DC6
C/2017 Y2 (PANSTARRS),h,11/04.9440/2020,128.4483,66.0312,147.8171,1.001125,4.622081,2000,15.0,4.0
# From MPC111770
P/2017 Y3 (Leonard),e,27.6274,154.0136,67.3396,9.795300,0.0321497,0.86958740,84.7987,04/28.0/2025,2000,g 16.5,4.0
# From MPEC 2021-P47
C/2018 A3 (ATLAS),e,139.6042,194.3532,86.5030,345.2345,0.0001537,0.99046231,0.0000,01/08.7154/2019,2000,g  8.5,4.0
# From MPC109147
P/2018 A5 (PANSTARRS),e,23.6242,87.7836,359.5498,5.624399,0.0738907,0.52448863,204.5184,04/28.0/2025,2000,g 15.0,4.0
# From MPEC 2024-JU4
C/2018 A6 (Gibbs),e,77.1555,340.4540,264.2718,14.99775,0.0169693,0.79883164,35.9533,04/28.0/2025,2000,g  9.0,4.0
# From MPC114601
P/2018 C1 (Lemmon-Read),e,5.1018,270.2027,235.7965,5.649546,0.0733979,0.53264391,192.2811,04/28.0/2025,2000,g 13.5,4.0
# From MPEC 2022-M88
C/2018 DO4 (Lemmon),e,160.4459,251.3933,176.4152,25.51790,0.0076460,0.90510830,15.9109,04/28.0/2025,2000,g 11.0,4.0
# From MPEC 2021-R75
C/2018 F1 (Grauer),e,46.1690,177.3186,71.4332,217.5701,0.0003071,0.98624907,0.0000,12/10.1543/2018,2000,g 11.5,4.0
# From MPEC 2023-A50
C/2018 F4 (PANSTARRS),e,78.1327,26.5361,263.1967,1779,0.0000131,0.99806191,0.0000,11/30.9417/2019,2000,g 11.0,6.0
# From MPEC 2021-Y10
C/2018 F4-A,e,78.1328,26.5362,263.1935,1732,0.0000137,0.99800897,0.0000,11/30.9298/2019,2000,g 11.0,6.0
# From MPEC 2023-D41
C/2018 F4-B,e,78.1338,26.5357,263.1793,1813,0.0000128,0.99809772,0.0000,11/30.8666/2019,2000,g 11.0,6.0
# From MPC114602
P/2018 H2 (PANSTARRS),e,7.4178,67.9839,119.2159,4.407774,0.1065062,0.53989952,286.5851,04/28.0/2025,2000,g 16.6,2.0
# From MPEC 2021-R75
C/2018 KJ3 (Lemmon),e,136.6210,91.6950,217.5388,704.0855,0.0000528,0.99486197,0.0000,09/08.8407/2019,2000,g 12.2,2.0
# From MPC xxxxx
P/2018 L1 (PANSTARRS),e,10.5748,268.5822,17.9544,3.658383,0.1408544,0.48134229,332.9377,04/28.0/2025,2000,g 15.7,4.0
# From MPEC 2021-P47
C/2018 L2 (ATLAS),e,67.2135,242.9884,56.3459,236.4860,0.0002710,0.99272050,0.0000,11/29.6224/2018,2000,g 10.0,4.0
# From MPC114603
P/2018 L4 (PANSTARRS),e,26.5930,145.2229,140.5076,4.948644,0.0895313,0.65825599,220.9771,04/28.0/2025,2000,g 17.5,4.0
# From MPEC 2022-YN2
C/2018 N2 (ASASSN),h,11/12.0786/2019,77.5013,24.5242,25.3214,1.001998,3.135293,2000,6.0,4.0
# From MPC114603
P/2018 P4 (PANSTARRS),e,23.0797,353.1579,8.5163,6.695582,0.0568881,0.44910606,134.4728,04/28.0/2025,2000,g 12.0,4.0
# From MPEC 2021-P47
C/2018 P5 (PANSTARRS),e,7.2464,216.2687,132.0362,12.84544,0.0214082,0.64165281,48.2356,04/28.0/2025,2000,g 11.0,4.0
# From MPC118841
C/2018 R3 (Lemmon),e,69.6888,324.3718,112.7986,1782,0.0000131,0.99927958,0.0000,06/08.0294/2019,2000,g  9.5,4.0
# From MPC114603
C/2018 R5 (Lemmon),e,103.6867,171.2644,178.2724,22.98096,0.0089465,0.84169449,20.5700,04/28.0/2025,2000,g 11.5,4.0
# From MPEC 2022-QC6
C/2018 S2 (TESS),e,64.1107,85.1076,290.9457,14.36992,0.0180935,0.61792325,42.8002,04/28.0/2025,2000,g  7.5,4.0
# From MPEC 2024-JU4
C/2018 U1 (Lemmon),h,11/02.2015/2021,108.3258,75.5145,180.3595,1.000216,4.986358,2000,5.0,4.0
# From MPC114604
C/2018 V1 (Machholz-Fujikawa-Iwamoto),h,12/04.0466/2018,144.1988,129.5903,89.5665,1.000458,0.390868,2000,12.0,4.0
# From MPC115884
C/2018 V2 (ATLAS),e,159.1619,357.2156,319.2809,25.24452,0.0077706,0.90127169,18.2198,04/28.0/2025,2000,g 15.0,4.0
# From MPEC 2025-A40
P/2018 VN2 (Leonard),e,18.2573,226.4387,138.9252,4.061242,0.1204248,0.47817265,302.8306,04/28.0/2025,2000,g 15.0,4.0
# From MPEC 2025-A40
A/2018 V3,e,164.9148,308.8173,3.5794,127.3918,0.0006855,0.98955666,0.0000,09/10.4549/2019,2000,g 15.7,2.0
# From MPEC 2022-M21
C/2018 V4 (Africano),e,69.0433,78.2459,0.0919,215.6185,0.0003113,0.98514391,0.0000,03/02.3868/2019,2000,g 12.5,4.0
# From MPEC 2021-P47
P/2018 V5 (Trujillo-Sheppard),e,10.5781,171.2947,260.8774,8.980574,0.0366225,0.47580665,87.7418,04/28.0/2025,2000,g 12.5,4.0
# From MPEC 2021-P47
C/2018 W1 (Catalina),e,83.4002,233.6361,251.1683,21.73982,0.0097234,0.93782084,21.1600,04/28.0/2025,2000,g 15.5,2.0
# From MPEC 2021-P47
C/2018 W2 (Africano),h,09/05.6833/2019,116.5426,181.9720,158.2339,1.000937,1.465502,2000,9.5,4.0
# From MPEC 2023-M14
A/2018 W3,e,104.8385,251.6888,313.8705,703.3895,0.0000528,0.99391164,0.0000,04/13.1583/2021,2000,g 10.7,2.0
# From MPC119996
C/2018 X2 (Fitzsimmons),e,23.1057,340.6428,162.0010,140.7125,0.0005905,0.98499640,0.0000,07/09.7515/2019,2000,g 12.0,4.0
# From MPC114604
C/2018 X3 (PANSTARRS),e,43.4263,78.7963,359.8613,12.41065,0.0225430,0.78291241,52.0380,04/28.0/2025,2000,g 14.5,4.0
# From MPEC 2024-A43
C/2018 Y1 (Iwamoto),e,160.4795,147.3420,357.8654,126.3595,0.0006939,0.98976920,0.0000,02/03.4662/2019,2000,g 11.5,4.0
# From MPC114605
P/2018 Y2 (Africano),e,11.6949,297.1189,162.3807,7.457047,0.0484009,0.48001816,111.5874,04/28.0/2025,2000,g 11.5,4.0
# From MPC114605
P/2019 A1 (PANSTARRS),e,13.7712,312.2118,150.7821,5.112535,0.0852608,0.57028330,203.5571,04/28.0/2025,2000,g 16.0,4.0
# From MPEC 2021-P47
P/2019 A2 (ATLAS),e,14.8729,139.3688,323.9508,5.710492,0.0722260,0.38326770,169.5074,04/28.0/2025,2000,g 10.5,4.0
# From MPEC 2022-M21
P/2019 A3 (PANSTARRS),e,15.3569,31.2888,325.6751,3.146683,0.1765731,0.26739183,74.3738,04/28.0/2025,2000,g 16.0,4.0
# From MPEC 2022-L66
P/2019 A4 (PANSTARRS),e,13.3057,119.3538,343.2284,2.614548,0.2331359,0.08740903,183.0941,04/28.0/2025,2000,g 15.0,4.0
# From MPEC 2021-P47
C/2019 A5 (PANSTARRS),e,67.5506,146.5176,355.8197,21.50142,0.0098856,0.70642440,21.2742,04/28.0/2025,2000,g  9.5,4.0
# From MPC114605
P/2019 A6 (Lemmon-PANSTARRS),e,33.2975,280.1741,156.2478,5.356800,0.0794961,0.64037411,193.1815,04/28.0/2025,2000,g 16.0,4.0
# From MPEC 2025-GB9
P/2019 A8 (PANSTARRS),e,2.3015,111.5292,46.6866,3.415622,0.1561347,0.37587973,4.2251,04/28.0/2025,2000,g 16.0,4.0
# From MPC118842
C/2019 A9 (PANSTARRS),e,84.3967,278.4693,237.8808,39.29803,0.0040008,0.96369230,8.4092,04/28.0/2025,2000,g 15.0,4.0
# From MPEC 2022-L66
C/2019 B1 (Africano),e,123.4892,290.2366,174.8216,139.5401,0.0005979,0.98851099,0.0000,03/18.2708/2019,2000,g 16.0,4.0
# From MPC115885
P/2019 B2 (Groeller),e,16.9530,175.6616,0.6155,3.927710,0.1266179,0.35773343,275.4936,04/28.0/2025,2000,g 14.5,4.0
# From MPEC 2024-JU4
C/2019 B3 (PANSTARRS),e,66.5998,358.4034,263.9950,3774,0.0000043,0.99819026,0.0000,01/19.6260/2021,2000,g  5.5,4.0
# From MPEC 2021-P47
C/2019 C1 (ATLAS),e,36.0394,212.3720,319.0149,684.4047,0.0000550,0.99040404,0.0000,05/04.4972/2020,2000,g 10.0,4.0
# From MPEC 2022-O08
C/2019 D1 (Flewelling),e,34.0086,231.6632,70.7203,136.8144,0.0006159,0.98836336,0.0000,05/08.9244/2019,2000,g 13.0,4.0
# From MPC182878
C/2019 E3 (ATLAS),e,84.3133,347.1979,280.7178,5345,0.0000025,0.99807035,0.0000,11/15.6034/2023,2000,g  2.5,4.0
# From MPEC 2024-GJ3
C/2019 F1 (ATLAS-Africano),h,06/21.2396/2021,54.2497,38.6639,251.3081,1.000383,3.608478,2000,5.5,4.0
# From MPEC 2025-A40
C/2019 F2 (ATLAS),e,19.3321,175.3502,11.6122,16.55766,0.0146287,0.86474458,30.1249,04/28.0/2025,2000,g 12.0,4.0
# From MPEC 2024-E01
C/2019 G2 (PANSTARRS),e,159.2504,208.2307,82.7704,401.2489,0.0001226,0.99425501,0.0000,12/06.5567/2019,2000,g 15.0,4.0
# From MPEC 2022-VC5
A/2019 G3,e,156.8079,49.8962,161.7386,17.11937,0.0139147,0.83429781,32.5212,04/28.0/2025,2000,g 17.1,2.0
# From MPC114607
P/2019 GG21 (PANSTARRS),e,6.0836,340.5651,208.5899,7.468639,0.0482883,0.47166665,105.2843,04/28.0/2025,2000,g 12.0,4.0
# From MPEC 2022-M21
C/2019 H1 (NEOWISE),e,104.3580,269.3118,19.2466,228.9515,0.0002845,0.99196286,0.0000,04/26.9648/2019,2000,g 15.5,4.0
# From MPEC 2023-A50
C/2019 J1 (Lemmon),e,24.5227,98.2348,167.5778,66.55549,0.0018152,0.96270433,4.0190,04/28.0/2025,2000,g 12.0,4.0
# From MPEC 2021-R75
C/2019 J2 (Palomar),e,105.2177,25.4722,98.5566,160.2365,0.0004859,0.98929947,0.0000,07/21.1215/2019,2000,g 13.0,4.0
# From MPC117071
C/2019 J3 (ATLAS),e,131.2944,270.6551,16.4978,38922,0.0000001,0.99993932,0.0000,08/02.0043/2019,2000,g 13.5,4.0
# From MPEC 2022-M21
C/2019 JU6 (ATLAS),e,148.3023,21.6946,94.7863,17943,0.0000004,0.99988674,0.0000,06/02.8892/2019,2000,g 14.5,4.0
# From MPEC 2022-O08
C/2019 K1 (ATLAS),e,87.0167,73.3102,265.7781,3042,0.0000059,0.99933569,0.0000,02/11.0141/2020,2000,g 10.0,4.0
# From MPC119997
C/2019 K4 (Ye),e,105.2889,180.2877,140.0178,1623,0.0000151,0.99859787,0.0000,06/15.2847/2019,2000,g 12.5,4.0
# From MPEC 2021-P47
C/2019 K5 (Young),e,15.2942,177.2702,175.1449,168.5693,0.0004503,0.98781226,0.0000,06/21.4531/2019,2000,g 13.0,4.0
# From MPEC 2021-P47
C/2019 K6 (PANSTARRS),e,132.3880,42.9822,187.4385,947.0731,0.0000338,0.99586357,0.0000,05/18.6637/2020,2000,g 11.5,4.0
# From MPEC 2024-GJ3
C/2019 K7 (Smith),h,06/17.1916/2020,103.4803,308.0334,27.3625,1.000411,4.474627,2000,6.0,4.0
# From MPEC 2021-R75
C/2019 K8 (ATLAS),e,93.0516,290.9912,85.3708,1709,0.0000139,0.99812903,0.0000,07/20.3105/2019,2000,g 11.5,4.0
# From MPEC 2023-A50
C/2019 L1 (PANSTARRS),e,9.9738,254.4271,50.0165,9.819345,0.0320317,0.70414417,66.9669,04/28.0/2025,2000,g 13.5,4.0
# From MPC115886
C/2019 L2 (NEOWISE),e,152.1537,12.5796,18.8516,25.14632,0.0078161,0.93551777,17.3226,04/28.0/2025,2000,g 16.0,4.0
# From MPEC 2024-GJ3
P/2019 LD2 (ATLAS),e,11.6056,178.8570,116.6007,5.172263,0.0837883,0.13055521,160.2733,04/28.0/2025,2000,g  8.5,4.0
# From MPEC 2025-A40
C/2019 L3 (ATLAS),h,01/10.0959/2022,48.3455,290.7199,171.7401,1.003090,3.558164,2000,4.5,4.0
# From MPEC 2024-YC7
